STARLINK-32114          
1 60287U 24132K   25212.58390973 -.00000635  00000+0 -93065-5 0  9994
2 60287  53.1613 359.7602 0001159  97.6154 262.4978 15.30190636 57705
STARLINK-31997          
1 60288U 24132L   25212.72072622  .00003126  00000+0  11757-3 0  9991
2 60288  53.1612 358.4830 0001277  87.3926 272.7221 15.30216866 57729
STARLINK-32000          
1 60289U 24132M   25212.69759051  .00285817  00000+0  91939-2 0  9994
2 60289  53.1594 359.0539 0005254 129.7138 230.4327 15.30557079 57729
STARLINK-32141          
1 60290U 24132N   25212.68182174  .00000142  00000+0  16927-4 0  9993
2 60290  53.1618 358.9514 0001231  84.1302 275.9839 15.30193850 57722
STARLINK-32142          
1 60291U 24132P   25212.72603854 -.00000672  00000+0 -10583-4 0  9994
2 60291  53.1620 358.5160 0001275  89.9283 270.1864 15.30181540 57737
STARLINK-32149          
1 60292U 24132Q   25212.70082285  .00000711  00000+0  36140-4 0  9991
2 60292  53.1624 359.0731 0001218  83.8172 276.2967 15.30178016 57723
STARLINK-32159          
1 60293U 24132R   25212.59329371 -.00000950  00000+0 -19948-4 0  9993
2 60293  53.1618 359.1063 0001097  97.0730 263.0395 15.30192109 57715
STARLINK-32150          
1 60294U 24132S   25212.57336302 -.00001539  00000+0 -39880-4 0  9995
2 60294  53.1616 359.6989 0001116  89.8380 270.2748 15.30187096 57708
STARLINK-32126          
1 60295U 24132T   25212.58601925 -.00000423  00000+0 -21643-5 0  9993
2 60295  53.1611 359.7725 0001130 100.6259 259.4869 15.30190002 57700
STARLINK-32143          
1 60296U 24132U   25212.57652077 -.00000644  00000+0 -96082-5 0  9991
2 60296  53.1611 359.7181 0001065  88.5841 271.5281 15.30196430 57709
STARLINK-32034          
1 60297U 24132V   25212.62812219 -.00001936  00000+0 -53285-4 0  9996
2 60297  53.1616 359.3278 0001174  86.9966 273.1169 15.30190299 57710
STARLINK-32124          
1 60298U 24132W   25212.57546390 -.00000260  00000+0  33392-5 0  9991
2 60298  53.1616 359.7107 0001067  88.8370 271.2753 15.30197034 57708
STARLINK-32151          
1 60299U 24132X   25212.57789990 -.00001394  00000+0 -34968-4 0  9996
2 60299  53.1605 331.0327 0001291 128.9580 231.1536 15.30181936 58093
STARLINK-32134          
1 60300U 24132Y   25212.61862492  .00000375  00000+0  24785-4 0  9995
2 60300  53.1615 359.2652 0001241  69.2048 290.9086 15.30184449 57714
STARLINK-11147 [DTC]    
1 60301U 24133A   25212.13628812  .00000106  00000+0  57324-5 0  9998
2 60301  53.1584 158.6238 0001049  80.9230 279.1907 15.69717156 58935
STARLINK-11128 [DTC]    
1 60302U 24133B   25212.57707905 -.00001058  00000+0 -38790-5 0  9993
2 60302  53.1585 156.3953 0000999  83.4929 276.6203 15.69703174 58983
STARLINK-11227 [DTC]    
1 60303U 24133C   25212.57218083  .00004381  00000+0  41051-4 0  9991
2 60303  53.1586 156.3618 0001322  93.6857 266.4312 15.69679334 59098
