[{"OBJECT_NAME":"STARLINK-32114","OBJECT_ID":"2024-132K","EPOCH":"2025-07-31T14:00:49.800672","MEAN_MOTION":15.30190636,"ECCENTRICITY":0.0001159,"INCLINATION":53.1613,"RA_OF_ASC_NODE":359.7602,"ARG_OF_PERICENTER":97.6154,"MEAN_ANOMALY":262.4978,"EPHEMERIS_TYPE":0,"CLASSIFICATION_TYPE":"U","NORAD_CAT_ID":60287,"ELEMENT_SET_NO":999,"REV_AT_EPOCH":5770,"BSTAR":-9.3065e-6,"MEAN_MOTION_DOT":-6.35e-6,"MEAN_MOTION_DDOT":0},{"OBJECT_NAME":"STARLINK-31997","OBJECT_ID":"2024-132L","EPOCH":"2025-07-31T17:17:50.745408","MEAN_MOTION":15.30216866,"ECCENTRICITY":0.0001277,"INCLINATION":53.1612,"RA_OF_ASC_NODE":358.483,"ARG_OF_PERICENTER":87.3926,"MEAN_ANOMALY":272.7221,"EPHEMERIS_TYPE":0,"CLASSIFICATION_TYPE":"U","NORAD_CAT_ID":60288,"ELEMENT_SET_NO":999,"REV_AT_EPOCH":5772,"BSTAR":0.00011757,"MEAN_MOTION_DOT":3.126e-5,"MEAN_MOTION_DDOT":0},{"OBJECT_NAME":"STARLINK-32000","OBJECT_ID":"2024-132M","EPOCH":"2025-07-31T16:44:31.820064","MEAN_MOTION":15.30557079,"ECCENTRICITY":0.0005254,"INCLINATION":53.1594,"RA_OF_ASC_NODE":359.0539,"ARG_OF_PERICENTER":129.7138,"MEAN_ANOMALY":230.4327,"EPHEMERIS_TYPE":0,"CLASSIFICATION_TYPE":"U","NORAD_CAT_ID":60289,"ELEMENT_SET_NO":999,"REV_AT_EPOCH":5772,"BSTAR":0.0091939,"MEAN_MOTION_DOT":0.00285817,"MEAN_MOTION_DDOT":0},{"OBJECT_NAME":"STARLINK-32141","OBJECT_ID":"2024-132N","EPOCH":"2025-07-31T16:21:49.398336","MEAN_MOTION":15.3019385,"ECCENTRICITY":0.0001231,"INCLINATION":53.1618,"RA_OF_ASC_NODE":358.9514,"ARG_OF_PERICENTER":84.1302,"MEAN_ANOMALY":275.9839,"EPHEMERIS_TYPE":0,"CLASSIFICATION_TYPE":"U","NORAD_CAT_ID":60290,"ELEMENT_SET_NO":999,"REV_AT_EPOCH":5772,"BSTAR":1.6927e-5,"MEAN_MOTION_DOT":1.42e-6,"MEAN_MOTION_DDOT":0},{"OBJECT_NAME":"STARLINK-32142","OBJECT_ID":"2024-132P","EPOCH":"2025-07-31T17:25:29.729856","MEAN_MOTION":15.3018154,"ECCENTRICITY":0.0001275,"INCLINATION":53.162,"RA_OF_ASC_NODE":358.516,"ARG_OF_PERICENTER":89.9283,"MEAN_ANOMALY":270.1864,"EPHEMERIS_TYPE":0,"CLASSIFICATION_TYPE":"U","NORAD_CAT_ID":60291,"ELEMENT_SET_NO":999,"REV_AT_EPOCH":5773,"BSTAR":-1.0583e-5,"MEAN_MOTION_DOT":-6.72e-6,"MEAN_MOTION_DDOT":0},{"OBJECT_NAME":"STARLINK-32149","OBJECT_ID":"2024-132Q","EPOCH":"2025-07-31T16:49:11.094240","MEAN_MOTION":15.30178016,"ECCENTRICITY":0.0001218,"INCLINATION":53.1624,"RA_OF_ASC_NODE":359.0731,"ARG_OF_PERICENTER":83.8172,"MEAN_ANOMALY":276.2967,"EPHEMERIS_TYPE":0,"CLASSIFICATION_TYPE":"U","NORAD_CAT_ID":60292,"ELEMENT_SET_NO":999,"REV_AT_EPOCH":5772,"BSTAR":3.614e-5,"MEAN_MOTION_DOT":7.11e-6,"MEAN_MOTION_DDOT":0},{"OBJECT_NAME":"STARLINK-32159","OBJECT_ID":"2024-132R","EPOCH":"2025-07-31T14:14:20.576544","MEAN_MOTION":15.30192109,"ECCENTRICITY":0.0001097,"INCLINATION":53.1618,"RA_OF_ASC_NODE":359.1063,"ARG_OF_PERICENTER":97.073,"MEAN_ANOMALY":263.0395,"EPHEMERIS_TYPE":0,"CLASSIFICATION_TYPE":"U","NORAD_CAT_ID":60293,"ELEMENT_SET_NO":999,"REV_AT_EPOCH":5771,"BSTAR":-1.9948e-5,"MEAN_MOTION_DOT":-9.5e-6,"MEAN_MOTION_DDOT":0},{"OBJECT_NAME":"STARLINK-32150","OBJECT_ID":"2024-132S","EPOCH":"2025-07-31T13:45:38.564928","MEAN_MOTION":15.30187096,"ECCENTRICITY":0.0001116,"INCLINATION":53.1616,"RA_OF_ASC_NODE":359.6989,"ARG_OF_PERICENTER":89.838,"MEAN_ANOMALY":270.2748,"EPHEMERIS_TYPE":0,"CLASSIFICATION_TYPE":"U","NORAD_CAT_ID":60294,"ELEMENT_SET_NO":999,"REV_AT_EPOCH":5770,"BSTAR":-3.988e-5,"MEAN_MOTION_DOT":-1.539e-5,"MEAN_MOTION_DDOT":0},{"OBJECT_NAME":"STARLINK-32126","OBJECT_ID":"2024-132T","EPOCH":"2025-07-31T14:03:52.063200","MEAN_MOTION":15.30190002,"ECCENTRICITY":0.000113,"INCLINATION":53.1611,"RA_OF_ASC_NODE":359.7725,"ARG_OF_PERICENTER":100.6259,"MEAN_ANOMALY":259.4869,"EPHEMERIS_TYPE":0,"CLASSIFICATION_TYPE":"U","NORAD_CAT_ID":60295,"ELEMENT_SET_NO":999,"REV_AT_EPOCH":5770,"BSTAR":-2.1643e-6,"MEAN_MOTION_DOT":-4.23e-6,"MEAN_MOTION_DDOT":0},{"OBJECT_NAME":"STARLINK-32143","OBJECT_ID":"2024-132U","EPOCH":"2025-07-31T13:50:11.394528","MEAN_MOTION":15.3019643,"ECCENTRICITY":0.0001065,"INCLINATION":53.1611,"RA_OF_ASC_NODE":359.7181,"ARG_OF_PERICENTER":88.5841,"MEAN_ANOMALY":271.5281,"EPHEMERIS_TYPE":0,"CLASSIFICATION_TYPE":"U","NORAD_CAT_ID":60296,"ELEMENT_SET_NO":999,"REV_AT_EPOCH":5770,"BSTAR":-9.6082e-6,"MEAN_MOTION_DOT":-6.44e-6,"MEAN_MOTION_DDOT":0},{"OBJECT_NAME":"STARLINK-32034","OBJECT_ID":"2024-132V","EPOCH":"2025-07-31T15:04:29.757216","MEAN_MOTION":15.30190299,"ECCENTRICITY":0.0001174,"INCLINATION":53.1616,"RA_OF_ASC_NODE":359.3278,"ARG_OF_PERICENTER":86.9966,"MEAN_ANOMALY":273.1169,"EPHEMERIS_TYPE":0,"CLASSIFICATION_TYPE":"U","NORAD_CAT_ID":60297,"ELEMENT_SET_NO":999,"REV_AT_EPOCH":5771,"BSTAR":-5.3285e-5,"MEAN_MOTION_DOT":-1.936e-5,"MEAN_MOTION_DDOT":0},{"OBJECT_NAME":"STARLINK-32124","OBJECT_ID":"2024-132W","EPOCH":"2025-07-31T13:48:40.080960","MEAN_MOTION":15.30197034,"ECCENTRICITY":0.0001067,"INCLINATION":53.1616,"RA_OF_ASC_NODE":359.7107,"ARG_OF_PERICENTER":88.837,"MEAN_ANOMALY":271.2753,"EPHEMERIS_TYPE":0,"CLASSIFICATION_TYPE":"U","NORAD_CAT_ID":60298,"ELEMENT_SET_NO":999,"REV_AT_EPOCH":5770,"BSTAR":3.3392e-6,"MEAN_MOTION_DOT":-2.6e-6,"MEAN_MOTION_DDOT":0},{"OBJECT_NAME":"STARLINK-32151","OBJECT_ID":"2024-132X","EPOCH":"2025-07-31T13:52:10.551360","MEAN_MOTION":15.30181936,"ECCENTRICITY":0.0001291,"INCLINATION":53.1605,"RA_OF_ASC_NODE":331.0327,"ARG_OF_PERICENTER":128.958,"MEAN_ANOMALY":231.1536,"EPHEMERIS_TYPE":0,"CLASSIFICATION_TYPE":"U","NORAD_CAT_ID":60299,"ELEMENT_SET_NO":999,"REV_AT_EPOCH":5809,"BSTAR":-3.4968e-5,"MEAN_MOTION_DOT":-1.394e-5,"MEAN_MOTION_DDOT":0},{"OBJECT_NAME":"STARLINK-32134","OBJECT_ID":"2024-132Y","EPOCH":"2025-07-31T14:50:49.193088","MEAN_MOTION":15.30184449,"ECCENTRICITY":0.0001241,"INCLINATION":53.1615,"RA_OF_ASC_NODE":359.2652,"ARG_OF_PERICENTER":69.2048,"MEAN_ANOMALY":290.9086,"EPHEMERIS_TYPE":0,"CLASSIFICATION_TYPE":"U","NORAD_CAT_ID":60300,"ELEMENT_SET_NO":999,"REV_AT_EPOCH":5771,"BSTAR":2.4785e-5,"MEAN_MOTION_DOT":3.75e-6,"MEAN_MOTION_DDOT":0},{"OBJECT_NAME":"STARLINK-11147 [DTC]","OBJECT_ID":"2024-133A","EPOCH":"2025-07-31T03:16:15.293568","MEAN_MOTION":15.69717156,"ECCENTRICITY":0.0001049,"INCLINATION":53.1584,"RA_OF_ASC_NODE":158.6238,"ARG_OF_PERICENTER":80.923,"MEAN_ANOMALY":279.1907,"EPHEMERIS_TYPE":0,"CLASSIFICATION_TYPE":"U","NORAD_CAT_ID":60301,"ELEMENT_SET_NO":999,"REV_AT_EPOCH":5893,"BSTAR":5.7324e-6,"MEAN_MOTION_DOT":1.06e-6,"MEAN_MOTION_DDOT":0},{"OBJECT_NAME":"STARLINK-11128 [DTC]","OBJECT_ID":"2024-133B","EPOCH":"2025-07-31T13:50:59.629920","MEAN_MOTION":15.69703174,"ECCENTRICITY":9.99e-5,"INCLINATION":53.1585,"RA_OF_ASC_NODE":156.3953,"ARG_OF_PERICENTER":83.4929,"MEAN_ANOMALY":276.6203,"EPHEMERIS_TYPE":0,"CLASSIFICATION_TYPE":"U","NORAD_CAT_ID":60302,"ELEMENT_SET_NO":999,"REV_AT_EPOCH":5898,"BSTAR":-3.879e-6,"MEAN_MOTION_DOT":-1.058e-5,"MEAN_MOTION_DDOT":0},{"OBJECT_NAME":"STARLINK-11227 [DTC]","OBJECT_ID":"2024-133C","EPOCH":"2025-07-31T13:43:56.423712","MEAN_MOTION":15.69679334,"ECCENTRICITY":0.0001322,"INCLINATION":53.1586,"RA_OF_ASC_NODE":156.3618,"ARG_OF_PERICENTER":93.6857,"MEAN_ANOMALY":266.4312,"EPHEMERIS_TYPE":0,"CLASSIFICATION_TYPE":"U","NORAD_CAT_ID":60303,"ELEMENT_SET_NO":999,"REV_AT_EPOCH":5909,"BSTAR":4.1051e-5,"MEAN_MOTION_DOT":4.381e-5,"MEAN_MOTION_DDOT":0}]
